{"type": "FeatureCollection", "features": [ {"type": "Feature", "properties": {"norad_id": 67066, "name": "HULIANWANG DIGUI 16H", "group": "last-30-days", "lat": -45.23620430763938, "lon": -129.53857114266202, "alt_km": 800.1731957470138, "timestamp": "2025-12-17T09:00:15.893508+00:00", "meta": {"OBJECT_NAME": "HULIANWANG DIGUI 16H", "OBJECT_ID": "2025-295H", "EPOCH": "2025-12-12T05:06:20.088000", "MEAN_MOTION": 14.26429655, "ECCENTRICITY": 0.00114905, "INCLINATION": 50.0029, "RA_OF_ASC_NODE": 14.4606, "ARG_OF_PERICENTER": 248.6611, "MEAN_ANOMALY": 111.3077, "EPHEMERIS_TYPE": 0, "CLASSIFICATION_TYPE": "U", "NORAD_CAT_ID": 67066, "ELEMENT_SET_NO": 999, "REV_AT_EPOCH": 4, "BSTAR": 2.4353642e-05, "MEAN_MOTION_DOT": -1.01e-06, "MEAN_MOTION_DDOT": 0}, "tle": {"line1": "1 67066U 25295H   25346.21273250 -.00000101  00000+0  24354-4 0  9994", "line2": "2 67066  50.0029  14.4606 0011490 248.6611 111.3077 14.26429655    45"}}, "geometry": {"type": "Point", "coordinates": [-129.53857114266202, -45.23620430763938]}}, {"type": "Feature", "properties": {"norad_id": 67067, "name": "HULIANWANG DIGUI 16J", "group": "last-30-days", "lat": -44.74668363403397, "lon": -131.0432318108766, "alt_km": 801.3316614349033, "timestamp": "2025-12-17T09:00:15.893517+00:00", "meta": {"OBJECT_NAME": "HULIANWANG DIGUI 16J", "OBJECT_ID": "2025-295J", "EPOCH": "2025-12-12T05:06:18.555264", "MEAN_MOTION": 14.26361638, "ECCENTRICITY": 0.00104901, "INCLINATION": 50.0044, "RA_OF_ASC_NODE": 14.4694, "ARG_OF_PERICENTER": 253.0387, "MEAN_ANOMALY": 106.9378, "EPHEMERIS_TYPE": 0, "CLASSIFICATION_TYPE": "U", "NORAD_CAT_ID": 67067, "ELEMENT_SET_NO": 999, "REV_AT_EPOCH": 4, "BSTAR": 6.475965e-06, "MEAN_MOTION_DOT": -1.45e-06, "MEAN_MOTION_DDOT": 0}, "tle": {"line1": "1 67067U 25295J   25346.21271476 -.00000145  00000+0  64760-5 0  9997", "line2": "2 67067  50.0044  14.4694 0010490 253.0387 106.9378 14.26361638    49"}}, "geometry": {"type": "Point", "coordinates": [-131.0432318108766, -44.74668363403397]}}, {"type": "Feature", "properties": {"norad_id": 67069, "name": "XIWANG-5 02", "group": "last-30-days", "lat": -6.4165299925239285, "lon": 67.77969030411364, "alt_km": 511.33205008439563, "timestamp": "2025-12-17T09:00:15.893528+00:00", "meta": {"OBJECT_NAME": "XIWANG-5 02", "OBJECT_ID": "2025-296A", "EPOCH": "2025-12-16T17:14:44.022048", "MEAN_MOTION": 15.16917082, "ECCENTRICITY": 0.00142168, "INCLINATION": 41.3519, "RA_OF_ASC_NODE": 78.8727, "ARG_OF_PERICENTER": 50.6205, "MEAN_ANOMALY": 309.5873, "EPHEMERIS_TYPE": 0, "CLASSIFICATION_TYPE": "U", "NORAD_CAT_ID": 67069, "ELEMENT_SET_NO": 999, "REV_AT_EPOCH": 56, "BSTAR": 0.00052177685, "MEAN_MOTION_DOT": 0.00010321, "MEAN_MOTION_DDOT": 0}, "tle": {"line1": "1 67069U 25296A   25350.71856507  .00010321  00000+0  52178-3 0  9998", "line2": "2 67069  41.3519  78.8727 0014216  50.6205 309.5873 15.16917082   560"}}, "geometry": {"type": "Point", "coordinates": [67.77969030411364, -6.4165299925239285]}}, {"type": "Feature", "properties": {"norad_id": 67070, "name": "DEAR-5", "group": "last-30-days", "lat": -4.328233815127669, "lon": 70.18664480754036, "alt_km": 510.5617472364984, "timestamp": "2025-12-17T09:00:15.893538+00:00", "meta": {"OBJECT_NAME": "DEAR-5", "OBJECT_ID": "2025-296B", "EPOCH": "2025-12-16T17:13:51.567744", "MEAN_MOTION": 15.16864031, "ECCENTRICITY": 0.00164401, "INCLINATION": 41.3568, "RA_OF_ASC_NODE": 78.872, "ARG_OF_PERICENTER": 53.4577, "MEAN_ANOMALY": 306.7756, "EPHEMERIS_TYPE": 0, "CLASSIFICATION_TYPE": "U", "NORAD_CAT_ID": 67070, "ELEMENT_SET_NO": 999, "REV_AT_EPOCH": 55, "BSTAR": 7.549016e-05, "MEAN_MOTION_DOT": 1.312e-05, "MEAN_MOTION_DDOT": 0}, "tle": {"line1": "1 67070U 25296B   25350.71795796  .00001312  00000+0  75490-4 0  9995", "line2": "2 67070  41.3568  78.8720 0016440  53.4577 306.7756 15.16864031   556"}}, "geometry": {"type": "Point", "coordinates": [70.18664480754036, -4.328233815127669]}}, {"type": "Feature", "properties": {"norad_id": 67071, "name": "KZ-11 R/B", "group": "last-30-days", "lat": 29.194764777865167, "lon": -142.38370000131388, "alt_km": 1057.5394509856633, "timestamp": "2025-12-17T09:00:15.893548+00:00", "meta": {"OBJECT_NAME": "KZ-11 R/B", "OBJECT_ID": "2025-296C", "EPOCH": "2025-12-16T22:38:39.295968", "MEAN_MOTION": 14.6940639, "ECCENTRICITY": 0.07509828, "INCLINATION": 41.3393, "RA_OF_ASC_NODE": 79.3997, "ARG_OF_PERICENTER": 344.0302, "MEAN_ANOMALY": 13.7957, "EPHEMERIS_TYPE": 0, "CLASSIFICATION_TYPE": "U", "NORAD_CAT_ID": 67071, "ELEMENT_SET_NO": 999, "REV_AT_EPOCH": 57, "BSTAR": 0.00049008431, "MEAN_MOTION_DOT": 0.04770098, "MEAN_MOTION_DDOT": 5.586626e-06}, "tle": {"line1": "1 67071U 25296C   25350.94351037  .04770098  55866-5  49008-3 0  9996", "line2": "2 67071  41.3393  79.3997 0750982 344.0302  13.7957 14.69406390   573"}}, "geometry": {"type": "Point", "coordinates": [-142.38370000131388, 29.194764777865167]}}, {"type": "Feature", "properties": {"norad_id": 67072, "name": "ELECTRON R/B", "group": "last-30-days", "lat": -31.271657989967117, "lon": -45.44500890044933, "alt_km": 183.10181277334777, "timestamp": "2025-12-17T09:00:15.893560+00:00", "meta": {"OBJECT_NAME": "ELECTRON R/B", "OBJECT_ID": "2025-297A", "EPOCH": "2025-12-16T22:58:53.743872", "MEAN_MOTION": 15.78744114, "ECCENTRICITY": 0.02337676, "INCLINATION": 97.4785, "RA_OF_ASC_NODE": 138.6779, "ARG_OF_PERICENTER": 217.0601, "MEAN_ANOMALY": 141.4328, "EPHEMERIS_TYPE": 0, "CLASSIFICATION_TYPE": "U", "NORAD_CAT_ID": 67072, "ELEMENT_SET_NO": 999, "REV_AT_EPOCH": 45, "BSTAR": 0.0013677404, "MEAN_MOTION_DOT": 0.01937078, "MEAN_MOTION_DDOT": 2.234368e-06}, "tle": {"line1": "1 67072U 25297A   25350.95756648  .01937078  22344-5  13677-2 0  9993", "line2": "2 67072  97.4785 138.6779 0233767 217.0601 141.4328 15.78744114   454"}}, "geometry": {"type": "Point", "coordinates": [-45.44500890044933, -31.271657989967117]}}, {"type": "Feature", "properties": {"norad_id": 67073, "name": "RAISE-4", "group": "last-30-days", "lat": 24.40551571170339, "lon": -37.78039694717605, "alt_km": 551.1959055603411, "timestamp": "2025-12-17T09:00:15.893572+00:00", "meta": {"OBJECT_NAME": "RAISE-4", "OBJECT_ID": "2025-297B", "EPOCH": "2025-12-16T22:45:23.586624", "MEAN_MOTION": 15.07160787, "ECCENTRICITY": 0.00116274, "INCLINATION": 97.4851, "RA_OF_ASC_NODE": 138.3842, "ARG_OF_PERICENTER": 305.5795, "MEAN_ANOMALY": 54.4349, "EPHEMERIS_TYPE": 0, "CLASSIFICATION_TYPE": "U", "NORAD_CAT_ID": 67073, "ELEMENT_SET_NO": 999, "REV_AT_EPOCH": 42, "BSTAR": 0.0002677791, "MEAN_MOTION_DOT": 3.971e-05, "MEAN_MOTION_DDOT": 0}, "tle": {"line1": "1 67073U 25297B   25350.94818966  .00003971  00000+0  26778-3 0  9996", "line2": "2 67073  97.4851 138.3842 0011627 305.5795  54.4349 15.07160787   426"}}, "geometry": {"type": "Point", "coordinates": [-37.78039694717605, 24.40551571170339]}}, {"type": "Feature", "properties": {"norad_id": 67074, "name": "ELECTRON KICK STAGE R/B", "group": "last-30-days", "lat": -18.862009386775707, "lon": 141.61811416493373, "alt_km": 400.3472001898517, "timestamp": "2025-12-17T09:00:15.893586+00:00", "meta": {"OBJECT_NAME": "ELECTRON KICK STAGE R/B", "OBJECT_ID": "2025-297C", "EPOCH": "2025-12-16T22:16:32.642112", "MEAN_MOTION": 15.54939906, "ECCENTRICITY": 0.02054897, "INCLINATION": 97.4817, "RA_OF_ASC_NODE": 138.5769, "ARG_OF_PERICENTER": 254.2722, "MEAN_ANOMALY": 103.5783, "EPHEMERIS_TYPE": 0, "CLASSIFICATION_TYPE": "U", "NORAD_CAT_ID": 67074, "ELEMENT_SET_NO": 999, "REV_AT_EPOCH": 43, "BSTAR": 0.0013666428, "MEAN_MOTION_DOT": 0.0024159, "MEAN_MOTION_DDOT": 1.720532e-05}, "tle": {"line1": "1 67074U 25297C   25350.92815558  .00241590  17205-4  13666-2 0  9991", "line2": "2 67074  97.4817 138.5769 0205489 254.2722 103.5783 15.54939906   438"}}, "geometry": {"type": "Point", "coordinates": [141.61811416493373, -18.862009386775707]}}, {"type": "Feature", "properties": {"norad_id": 67131, "name": "ZIYUAN 3-04 (ZY 3-04)", "group": "last-30-days", "lat": 71.00592169840935, "lon": 42.95662054675735, "alt_km": 492.4932935368852, "timestamp": "2025-12-17T09:00:15.893596+00:00", "meta": {"OBJECT_NAME": "ZIYUAN 3-04 (ZY 3-04)", "OBJECT_ID": "2025-300A", "EPOCH": "2025-12-16T05:54:33.890112", "MEAN_MOTION": 15.24627585, "ECCENTRICITY": 0.0011082, "INCLINATION": 97.5012, "RA_OF_ASC_NODE": 64.3338, "ARG_OF_PERICENTER": 268.6179, "MEAN_ANOMALY": 91.3789, "EPHEMERIS_TYPE": 0, "CLASSIFICATION_TYPE": "U", "NORAD_CAT_ID": 67131, "ELEMENT_SET_NO": 999, "REV_AT_EPOCH": 2, "BSTAR": 8.3268042e-05, "MEAN_MOTION_DOT": 1.984e-05, "MEAN_MOTION_DDOT": 0}, "tle": {"line1": "1 67131U 25300A   25350.24622558  .00001984  00000+0  83268-4 0  9999", "line2": "2 67131  97.5012  64.3338 0011082 268.6179  91.3789 15.24627585    26"}}, "geometry": {"type": "Point", "coordinates": [42.95662054675735, 71.00592169840935]}}, {"type": "Feature", "properties": {"norad_id": 67132, "name": "CZ-4B R/B", "group": "last-30-days", "lat": -60.646730030636164, "lon": -128.1018712715478, "alt_km": 462.8012203608232, "timestamp": "2025-12-17T09:00:15.893606+00:00", "meta": {"OBJECT_NAME": "CZ-4B R/B", "OBJECT_ID": "2025-300B", "EPOCH": "2025-12-16T16:36:35.897760", "MEAN_MOTION": 15.63436967, "ECCENTRICITY": 0.01737904, "INCLINATION": 97.5576, "RA_OF_ASC_NODE": 64.8224, "ARG_OF_PERICENTER": 16.477, "MEAN_ANOMALY": 344.2037, "EPHEMERIS_TYPE": 0, "CLASSIFICATION_TYPE": "U", "NORAD_CAT_ID": 67132, "ELEMENT_SET_NO": 999, "REV_AT_EPOCH": 9, "BSTAR": 0.00023006068, "MEAN_MOTION_DOT": 0.00046587, "MEAN_MOTION_DDOT": 2.779206e-06}, "tle": {"line1": "1 67132U 25300B   25350.69208215  .00046587  27792-5  23006-3 0  9993", "line2": "2 67132  97.5576  64.8224 0173790  16.4770 344.2037 15.63436967    90"}}, "geometry": {"type": "Point", "coordinates": [-128.1018712715478, -60.646730030636164]}}]}